{"type": "FeatureCollection", "features": [ {"type": "Feature", "properties": {"norad_id": 35443, "name": "COSMOS 2251 DEB", "group": "cosmos-2251-debris", "lat": -53.70646103038441, "lon": -57.27256188857172, "alt_km": 631.4812014658801, "timestamp": "2025-12-15T14:57:58.207792+00:00", "meta": {"OBJECT_NAME": "COSMOS 2251 DEB", "OBJECT_ID": "1993-036AKM", "EPOCH": "2025-12-14T08:44:51.126432", "MEAN_MOTION": 14.96872959, "ECCENTRICITY": 0.00730072, "INCLINATION": 73.9879, "RA_OF_ASC_NODE": 328.2992, "ARG_OF_PERICENTER": 109.5379, "MEAN_ANOMALY": 251.371, "EPHEMERIS_TYPE": 0, "CLASSIFICATION_TYPE": "U", "NORAD_CAT_ID": 35443, "ELEMENT_SET_NO": 999, "REV_AT_EPOCH": 86902, "BSTAR": 0.0038186526, "MEAN_MOTION_DOT": 0.00046511, "MEAN_MOTION_DDOT": 0}, "tle": {"line1": "1 35443U 93036AKM 25348.36448063  .00046511  00000+0  38187-2 0  9991", "line2": "2 35443  73.9879 328.2992 0073007 109.5379 251.3710 14.96872959869024"}}, "geometry": {"type": "Point", "coordinates": [-57.27256188857172, -53.70646103038441]}}, {"type": "Feature", "properties": {"norad_id": 35445, "name": "COSMOS 2251 DEB", "group": "cosmos-2251-debris", "lat": -51.85010982009076, "lon": -86.8627567832145, "alt_km": 675.6606570758322, "timestamp": "2025-12-15T14:57:58.207801+00:00", "meta": {"OBJECT_NAME": "COSMOS 2251 DEB", "OBJECT_ID": "1993-036AKP", "EPOCH": "2025-12-13T22:04:40.513440", "MEAN_MOTION": 14.59186255, "ECCENTRICITY": 0.01438132, "INCLINATION": 74.0364, "RA_OF_ASC_NODE": 297.7552, "ARG_OF_PERICENTER": 24.4999, "MEAN_ANOMALY": 336.2909, "EPHEMERIS_TYPE": 0, "CLASSIFICATION_TYPE": "U", "NORAD_CAT_ID": 35445, "ELEMENT_SET_NO": 999, "REV_AT_EPOCH": 87346, "BSTAR": 0.0023329731, "MEAN_MOTION_DOT": 0.00012698, "MEAN_MOTION_DDOT": 0}, "tle": {"line1": "1 35445U 93036AKP 25347.91991335  .00012698  00000+0  23330-2 0  9991", "line2": "2 35445  74.0364 297.7552 0143813  24.4999 336.2909 14.59186255873467"}}, "geometry": {"type": "Point", "coordinates": [-86.8627567832145, -51.85010982009076]}}, {"type": "Feature", "properties": {"norad_id": 35446, "name": "COSMOS 2251 DEB", "group": "cosmos-2251-debris", "lat": -60.575937284708026, "lon": -77.74521647833514, "alt_km": 754.4947659642921, "timestamp": "2025-12-15T14:57:58.207810+00:00", "meta": {"OBJECT_NAME": "COSMOS 2251 DEB", "OBJECT_ID": "1993-036AKQ", "EPOCH": "2025-12-14T04:36:11.087136", "MEAN_MOTION": 14.54631027, "ECCENTRICITY": 0.00744204, "INCLINATION": 74.0468, "RA_OF_ASC_NODE": 315.4356, "ARG_OF_PERICENTER": 73.2125, "MEAN_ANOMALY": 287.7185, "EPHEMERIS_TYPE": 0, "CLASSIFICATION_TYPE": "U", "NORAD_CAT_ID": 35446, "ELEMENT_SET_NO": 999, "REV_AT_EPOCH": 88029, "BSTAR": 0.00015794342, "MEAN_MOTION_DOT": 6.7e-06, "MEAN_MOTION_DDOT": 0}, "tle": {"line1": "1 35446U 93036AKQ 25348.19179499  .00000670  00000+0  15794-3 0  9995", "line2": "2 35446  74.0468 315.4356 0074420  73.2125 287.7185 14.54631027880295"}}, "geometry": {"type": "Point", "coordinates": [-77.74521647833514, -60.575937284708026]}}, {"type": "Feature", "properties": {"norad_id": 35448, "name": "COSMOS 2251 DEB", "group": "cosmos-2251-debris", "lat": 27.828239956136326, "lon": -104.75192648763343, "alt_km": 713.7610066506868, "timestamp": "2025-12-15T14:57:58.207820+00:00", "meta": {"OBJECT_NAME": "COSMOS 2251 DEB", "OBJECT_ID": "1993-036AKS", "EPOCH": "2025-12-14T16:48:40.813632", "MEAN_MOTION": 14.54286955, "ECCENTRICITY": 0.00119673, "INCLINATION": 73.9048, "RA_OF_ASC_NODE": 85.7736, "ARG_OF_PERICENTER": 268.2948, "MEAN_ANOMALY": 91.6843, "EPHEMERIS_TYPE": 0, "CLASSIFICATION_TYPE": "U", "NORAD_CAT_ID": 35448, "ELEMENT_SET_NO": 999, "REV_AT_EPOCH": 87363, "BSTAR": 0.00094048305, "MEAN_MOTION_DOT": 3.966e-05, "MEAN_MOTION_DDOT": 0}, "tle": {"line1": "1 35448U 93036AKS 25348.70047238  .00003966  00000+0  94048-3 0  9999", "line2": "2 35448  73.9048  85.7736 0011967 268.2948  91.6843 14.54286955873633"}}, "geometry": {"type": "Point", "coordinates": [-104.75192648763343, 27.828239956136326]}}, {"type": "Feature", "properties": {"norad_id": 35451, "name": "COSMOS 2251 DEB", "group": "cosmos-2251-debris", "lat": -58.54093580812278, "lon": 68.33138145743105, "alt_km": 444.8255089104887, "timestamp": "2025-12-15T14:57:58.207828+00:00", "meta": {"OBJECT_NAME": "COSMOS 2251 DEB", "OBJECT_ID": "1993-036AKV", "EPOCH": "2025-12-14T17:21:00.017568", "MEAN_MOTION": 15.35844177, "ECCENTRICITY": 0.00411257, "INCLINATION": 73.9322, "RA_OF_ASC_NODE": 98.383, "ARG_OF_PERICENTER": 344.054, "MEAN_ANOMALY": 15.9367, "EPHEMERIS_TYPE": 0, "CLASSIFICATION_TYPE": "U", "NORAD_CAT_ID": 35451, "ELEMENT_SET_NO": 999, "REV_AT_EPOCH": 67436, "BSTAR": 0.0011714729, "MEAN_MOTION_DOT": 0.00042215, "MEAN_MOTION_DDOT": 0}, "tle": {"line1": "1 35451U 93036AKV 25348.72291687  .00042215  00000+0  11715-2 0  9993", "line2": "2 35451  73.9322  98.3830 0041125 344.0540  15.9367 15.35844177674362"}}, "geometry": {"type": "Point", "coordinates": [68.33138145743105, -58.54093580812278]}}, {"type": "Feature", "properties": {"norad_id": 35453, "name": "COSMOS 2251 DEB", "group": "cosmos-2251-debris", "lat": 32.929229184910724, "lon": 25.75585166624208, "alt_km": 781.8553019810633, "timestamp": "2025-12-15T14:57:58.207837+00:00", "meta": {"OBJECT_NAME": "COSMOS 2251 DEB", "OBJECT_ID": "1993-036AKX", "EPOCH": "2025-12-12T10:00:01.192608", "MEAN_MOTION": 14.37983532, "ECCENTRICITY": 0.00672601, "INCLINATION": 74.0093, "RA_OF_ASC_NODE": 20.9669, "ARG_OF_PERICENTER": 155.0047, "MEAN_ANOMALY": 205.439, "EPHEMERIS_TYPE": 0, "CLASSIFICATION_TYPE": "U", "NORAD_CAT_ID": 35453, "ELEMENT_SET_NO": 999, "REV_AT_EPOCH": 86214, "BSTAR": 0.0010887113, "MEAN_MOTION_DOT": 3.355e-05, "MEAN_MOTION_DDOT": 0}, "tle": {"line1": "1 35453U 93036AKX 25346.41668047  .00003355  00000+0  10887-2 0  9998", "line2": "2 35453  74.0093  20.9669 0067260 155.0047 205.4390 14.37983532862149"}}, "geometry": {"type": "Point", "coordinates": [25.75585166624208, 32.929229184910724]}}, {"type": "Feature", "properties": {"norad_id": 35455, "name": "COSMOS 2251 DEB", "group": "cosmos-2251-debris", "lat": 5.793318763530044, "lon": -68.94427608017226, "alt_km": 665.8465609916966, "timestamp": "2025-12-15T14:57:58.207846+00:00", "meta": {"OBJECT_NAME": "COSMOS 2251 DEB", "OBJECT_ID": "1993-036AKZ", "EPOCH": "2025-12-13T21:31:37.319808", "MEAN_MOTION": 14.49426566, "ECCENTRICITY": 0.00991812, "INCLINATION": 74.0281, "RA_OF_ASC_NODE": 292.6308, "ARG_OF_PERICENTER": 35.8809, "MEAN_ANOMALY": 324.8957, "EPHEMERIS_TYPE": 0, "CLASSIFICATION_TYPE": "U", "NORAD_CAT_ID": 35455, "ELEMENT_SET_NO": 999, "REV_AT_EPOCH": 86560, "BSTAR": 0.0018405122, "MEAN_MOTION_DOT": 7.478e-05, "MEAN_MOTION_DDOT": 0}, "tle": {"line1": "1 35455U 93036AKZ 25347.89695972  .00007478  00000+0  18405-2 0  9994", "line2": "2 35455  74.0281 292.6308 0099181  35.8809 324.8957 14.49426566865607"}}, "geometry": {"type": "Point", "coordinates": [-68.94427608017226, 5.793318763530044]}}, {"type": "Feature", "properties": {"norad_id": 35456, "name": "COSMOS 2251 DEB", "group": "cosmos-2251-debris", "lat": -33.19152770892628, "lon": -57.28536630596345, "alt_km": 681.3779513984891, "timestamp": "2025-12-15T14:57:58.207855+00:00", "meta": {"OBJECT_NAME": "COSMOS 2251 DEB", "OBJECT_ID": "1993-036ALA", "EPOCH": "2025-12-14T15:06:45.279936", "MEAN_MOTION": 14.69470866, "ECCENTRICITY": 0.00660928, "INCLINATION": 73.9499, "RA_OF_ASC_NODE": 113.7944, "ARG_OF_PERICENTER": 323.212, "MEAN_ANOMALY": 36.4523, "EPHEMERIS_TYPE": 0, "CLASSIFICATION_TYPE": "U", "NORAD_CAT_ID": 35456, "ELEMENT_SET_NO": 999, "REV_AT_EPOCH": 65903, "BSTAR": 0.0014662865, "MEAN_MOTION_DOT": 8.962e-05, "MEAN_MOTION_DDOT": 0}, "tle": {"line1": "1 35456U 93036ALA 25348.62969074  .00008962  00000+0  14663-2 0  9995", "line2": "2 35456  73.9499 113.7944 0066092 323.2120  36.4523 14.69470866659038"}}, "geometry": {"type": "Point", "coordinates": [-57.28536630596345, -33.19152770892628]}}, {"type": "Feature", "properties": {"norad_id": 35459, "name": "COSMOS 2251 DEB", "group": "cosmos-2251-debris", "lat": -73.32582918015042, "lon": 76.98887683986325, "alt_km": 782.2683310509801, "timestamp": "2025-12-15T14:57:58.207864+00:00", "meta": {"OBJECT_NAME": "COSMOS 2251 DEB", "OBJECT_ID": "1993-036ALD", "EPOCH": "2025-12-13T06:36:57.783456", "MEAN_MOTION": 14.37463066, "ECCENTRICITY": 0.00162707, "INCLINATION": 73.8693, "RA_OF_ASC_NODE": 186.288, "ARG_OF_PERICENTER": 133.9432, "MEAN_ANOMALY": 226.3067, "EPHEMERIS_TYPE": 0, "CLASSIFICATION_TYPE": "U", "NORAD_CAT_ID": 35459, "ELEMENT_SET_NO": 999, "REV_AT_EPOCH": 58369, "BSTAR": 0.00036578266, "MEAN_MOTION_DOT": 1.069e-05, "MEAN_MOTION_DDOT": 0}, "tle": {"line1": "1 35459U 93036ALD 25347.27566879  .00001069  00000+0  36578-3 0  9995", "line2": "2 35459  73.8693 186.2880 0016270 133.9432 226.3067 14.37463066583695"}}, "geometry": {"type": "Point", "coordinates": [76.98887683986325, -73.32582918015042]}}, {"type": "Feature", "properties": {"norad_id": 35462, "name": "COSMOS 2251 DEB", "group": "cosmos-2251-debris", "lat": -60.024959808036414, "lon": 113.2015123963669, "alt_km": 763.5685822614205, "timestamp": "2025-12-15T14:57:58.207873+00:00", "meta": {"OBJECT_NAME": "COSMOS 2251 DEB", "OBJECT_ID": "1993-036ALG", "EPOCH": "2025-12-14T10:56:33.653184", "MEAN_MOTION": 14.29314779, "ECCENTRICITY": 0.00867737, "INCLINATION": 74.0364, "RA_OF_ASC_NODE": 265.5668, "ARG_OF_PERICENTER": 300.3316, "MEAN_ANOMALY": 58.9271, "EPHEMERIS_TYPE": 0, "CLASSIFICATION_TYPE": "U", "NORAD_CAT_ID": 35462, "ELEMENT_SET_NO": 999, "REV_AT_EPOCH": 66405, "BSTAR": 0.0017596201, "MEAN_MOTION_DOT": 4.641e-05, "MEAN_MOTION_DDOT": 0}, "tle": {"line1": "1 35462U 93036ALG 25348.45594506  .00004641  00000+0  17596-2 0  9995", "line2": "2 35462  74.0364 265.5668 0086773 300.3316  58.9271 14.29314779664051"}}, "geometry": {"type": "Point", "coordinates": [113.2015123963669, -60.024959808036414]}}]}